[ {
  "OBJECT_ID": "2003-042G",
  "OBJECT_NAME": "KAISTSAT 4",
  "NORAD_CAT_ID": "27945",
  "OBJECT_TYPE": "PAYLOAD",
  "PERIOD": "98.315",
  "INCLINATION": "97.9012",
  "APOGEE": "687.723",
  "PERIGEE": "668.528",
  "ECCENTRICITY": "0.0013601",
  "MEAN_MOTION": "14.64673478",
  "TLE_LINE1": "1 27945U 03042G   16239.22924123  .00000077  00000-0  22942-4 0  9999",
  "TLE_LINE2": "2 27945  97.9012  25.9794 0013601 100.1402 260.1336 14.64673478689871",
  "LAUNCH_DATE": "2003-09-27",
  "LAUNCH_SITE": "PLESETSK MISSILE AND SPACE COMPLEX",
  "OWNER": "SOUTH KOREA",
  "ORBIT_TYPE": "Low Earth Orbit",
  "OPERATIONAL_STATUS": "Nonoperational"
}, {
  "OBJECT_ID": "2003-049A",
  "OBJECT_NAME": "CBERS 2",
  "NORAD_CAT_ID": "28057",
  "OBJECT_TYPE": "PAYLOAD",
  "PERIOD": "100.311",
  "INCLINATION": "98.2886",
  "APOGEE": "774.572",
  "PERIGEE": "772.072",
  "ECCENTRICITY": "0.0001748",
  "MEAN_MOTION": "14.35525551",
  "TLE_LINE1": "1 28057U 03049A   16239.41097321  .00000031  00000-0  25178-4 0  9997",
  "TLE_LINE2": "2 28057  98.2886 199.4430 0001748  49.8464 310.2878 14.35525551673225",
  "LAUNCH_DATE": "2003-10-21",
  "LAUNCH_SITE": "Taiyaun Space Center, China",
  "OWNER": "PEOPLES REPUBLIC OF CHINA/BRAZIL",
  "ORBIT_TYPE": "Low Earth Orbit",
  "OPERATIONAL_STATUS": "Nonoperational"
}, {
  "OBJECT_ID": "2003-050A",
  "OBJECT_NAME": "SERVIS 1",
  "NORAD_CAT_ID": "28060",
  "OBJECT_TYPE": "PAYLOAD",
  "PERIOD": "104.978",
  "INCLINATION": "99.3838",
  "APOGEE": "1009.834",
  "PERIGEE": "977.086",
  "ECCENTRICITY": "0.0022212",
  "MEAN_MOTION": "13.71704409",
  "TLE_LINE1": "1 28060U 03050A   16238.96154648 -.00000016 +00000-0 +30183-4 0  9994",
  "TLE_LINE2": "2 28060 099.3838 249.1117 0022212 042.8288 012.5505 13.71704409641795",
  "LAUNCH_DATE": "2003-10-30",
  "LAUNCH_SITE": "PLESETSK MISSILE AND SPACE COMPLEX",
  "OWNER": "JAPAN",
  "ORBIT_TYPE": "Low Earth Orbit",
  "OPERATIONAL_STATUS": "Nonoperational"
}, {
  "OBJECT_ID": "2004-014A",
  "OBJECT_NAME": "GP-B",
  "NORAD_CAT_ID": "28230",
  "OBJECT_TYPE": "PAYLOAD",
  "PERIOD": "97.399",
  "INCLINATION": "89.8598",
  "APOGEE": "636.462",
  "PERIGEE": "631.960",
  "ECCENTRICITY": "0.000321",
  "MEAN_MOTION": "14.78453738",
  "TLE_LINE1": "1 28230U 04014A   16239.27345404  .00000124  00000-0  14826-4 0  9996",
  "TLE_LINE2": "2 28230  89.8598 127.4818 0003210  99.1733 260.9853 14.78453738665520",
  "LAUNCH_DATE": "2004-04-20",
  "LAUNCH_SITE": "AIR FORCE WESTERN TEST RANGE",
  "OWNER": "UNITED STATES OF AMERICA",
  "ORBIT_TYPE": "Low Earth Orbit",
  "OPERATIONAL_STATUS": "Nonoperational"
}, {
  "OBJECT_ID": "2004-025C",
  "OBJECT_NAME": "DEMETER",
  "NORAD_CAT_ID": "28368",
  "OBJECT_TYPE": "PAYLOAD",
  "PERIOD": "97.688",
  "INCLINATION": "97.7134",
  "APOGEE": "649.813",
  "PERIGEE": "646.350",
  "ECCENTRICITY": "0.0002464",
  "MEAN_MOTION": "14.74077929",
  "TLE_LINE1": "1 28368U 04025C   16239.54810164  .00000325  00000-0  56453-4 0  9995",
  "TLE_LINE2": "2 28368  97.7134 246.7668 0002464 114.2097 245.9369 14.74077929652213",
  "LAUNCH_DATE": "2004-06-29",
  "LAUNCH_SITE": "TYURATAM MISSILE AND SPACE COMPLEX",
  "OWNER": "FRANCE",
  "ORBIT_TYPE": "Low Earth Orbit",
  "OPERATIONAL_STATUS": "Nonoperational"
}, {
  "OBJECT_ID": "2004-025H",
  "OBJECT_NAME": "UNISAT 3",
  "NORAD_CAT_ID": "28373",
  "OBJECT_TYPE": "PAYLOAD",
  "PERIOD": "99.631",
  "INCLINATION": "98.2995",
  "APOGEE": "790.669",
  "PERIGEE": "691.289",
  "ECCENTRICITY": "0.0069798",
  "MEAN_MOTION": "14.45319399",
  "TLE_LINE1": "1 28373U 04025H   16239.44148049  .00000093  00000-0  38253-4 0  9996",
  "TLE_LINE2": "2 28373  98.2995 181.2793 0069798  25.7148 334.7487 14.45319399641324",
  "LAUNCH_DATE": "2004-06-29",
  "LAUNCH_SITE": "TYURATAM MISSILE AND SPACE COMPLEX",
  "OWNER": "ITALY",
  "ORBIT_TYPE": "Low Earth Orbit",
  "OPERATIONAL_STATUS": "Nonoperational"
}, {
  "OBJECT_ID": "2004-025K",
  "OBJECT_NAME": "AMSAT ECHO",
  "NORAD_CAT_ID": "28375",
  "OBJECT_TYPE": "PAYLOAD",
  "PERIOD": "99.875",
  "INCLINATION": "98.3301",
  "APOGEE": "812.379",
  "PERIGEE": "692.785",
  "ECCENTRICITY": "0.0083858",
  "MEAN_MOTION": "14.41793022",
  "TLE_LINE1": "1 28375U 04025K   16238.87173635 +.00000028 +00000-0 +21074-4 0  9994",
  "TLE_LINE2": "2 28375 098.3301 172.8978 0083858 094.2006 266.8773 14.41793022639208",
  "LAUNCH_DATE": "2004-06-29",
  "LAUNCH_SITE": "TYURATAM MISSILE AND SPACE COMPLEX",
  "OWNER": "UNITED STATES OF AMERICA",
  "ORBIT_TYPE": "Low Earth Orbit",
  "OPERATIONAL_STATUS": "Nonoperational"
}, {
  "OBJECT_ID": "2004-049G",
  "OBJECT_NAME": "PARASOL",
  "NORAD_CAT_ID": "28498",
  "OBJECT_TYPE": "PAYLOAD",
  "PERIOD": "98.066",
  "INCLINATION": "98.4895",
  "APOGEE": "677.759",
  "PERIGEE": "654.650",
  "ECCENTRICITY": "0.0016403",
  "MEAN_MOTION": "14.68392981",
  "TLE_LINE1": "1 28498U 04049G   16239.18581561  .00000053  00000-0  18470-4 0  9996",
  "TLE_LINE2": "2 28498  98.4895 271.1645 0016403 145.2467 214.9812 14.68392981623037",
  "LAUNCH_DATE": "2004-12-18",
  "LAUNCH_SITE": "FRENCH GUIANA",
  "OWNER": "FRANCE",
  "ORBIT_TYPE": "Low Earth Orbit",
  "OPERATIONAL_STATUS": "Nonoperational"
}, {
  "OBJECT_ID": "2005-017B",
  "OBJECT_NAME": "HAMSAT",
  "NORAD_CAT_ID": "28650",
  "OBJECT_TYPE": "PAYLOAD",
  "PERIOD": "96.750",
  "INCLINATION": "97.6141",
  "APOGEE": "620.161",
  "PERIGEE": "585.899",
  "ECCENTRICITY": "0.0024539",
  "MEAN_MOTION": "14.8836976",
  "TLE_LINE1": "1 28650U 05017B   16238.91786924 +.00000422 +00000-0 +51107-4 0  9996",
  "TLE_LINE2": "2 28650 097.6141 218.0026 0024539 031.7668 328.5023 14.88369760612176",
  "LAUNCH_DATE": "2005-05-05",
  "LAUNCH_SITE": "SIRHARIKOTA",
  "OWNER": "INDIA",
  "ORBIT_TYPE": "Low Earth Orbit",
  "OPERATIONAL_STATUS": "Nonoperational"
}, {
  "OBJECT_ID": "2005-043B",
  "OBJECT_NAME": "TOPSAT",
  "NORAD_CAT_ID": "28891",
  "OBJECT_TYPE": "PAYLOAD",
  "PERIOD": "98.548",
  "INCLINATION": "97.8522",
  "APOGEE": "701.287",
  "PERIGEE": "677.269",
  "ECCENTRICITY": "0.0016992",
  "MEAN_MOTION": "14.61207911",
  "TLE_LINE1": "1 28891U 05043B   16239.47663662  .00000044  00000-0  17838-4 0  9990",
  "TLE_LINE2": "2 28891  97.8522  43.3693 0016992  10.1423 350.0136 14.61207911577312",
  "LAUNCH_DATE": "2005-10-27",
  "LAUNCH_SITE": "PLESETSK MISSILE AND SPACE COMPLEX",
  "OWNER": "UNITED KINGDOM",
  "ORBIT_TYPE": "Low Earth Orbit",
  "OPERATIONAL_STATUS": "Nonoperational"
}, {
  "OBJECT_ID": "2005-043C",
  "OBJECT_NAME": "UWE-1",
  "NORAD_CAT_ID": "28892",
  "OBJECT_TYPE": "PAYLOAD",
  "PERIOD": "98.415",
  "INCLINATION": "97.8418",
  "APOGEE": "694.479",
  "PERIGEE": "671.333",
  "ECCENTRICITY": "0.001639",
  "MEAN_MOTION": "14.63186175",
  "TLE_LINE1": "1 28892U 05043C   16239.01273146  .00000170  00000-0  41590-4 0  9997",
  "TLE_LINE2": "2 28892  97.8418  47.8523 0016390   2.5034 357.6248 14.63186175577422",
  "LAUNCH_DATE": "2005-10-27",
  "LAUNCH_SITE": "PLESETSK MISSILE AND SPACE COMPLEX",
  "OWNER": "GERMANY",
  "ORBIT_TYPE": "Low Earth Orbit",
  "OPERATIONAL_STATUS": "Nonoperational"
}, {
  "OBJECT_ID": "2005-043E",
  "OBJECT_NAME": "SSETI-EXPRESS",
  "NORAD_CAT_ID": "28894",
  "OBJECT_TYPE": "PAYLOAD",
  "PERIOD": "98.537",
  "INCLINATION": "97.8485",
  "APOGEE": "701.072",
  "PERIGEE": "676.451",
  "ECCENTRICITY": "0.001742",
  "MEAN_MOTION": "14.61368174",
  "TLE_LINE1": "1 28894U 05043E   16238.94952917 +.00000081 +00000-0 +25200-4 0  9991",
  "TLE_LINE2": "2 28894 097.8485 044.5119 0017420 014.1768 345.9919 14.61368174576749",
  "LAUNCH_DATE": "2005-10-27",
  "LAUNCH_SITE": "PLESETSK MISSILE AND SPACE COMPLEX",
  "OWNER": "EUROPEAN SPACE AGENCY",
  "ORBIT_TYPE": "Low Earth Orbit",
  "OPERATIONAL_STATUS": "Nonoperational"
}, {
  "OBJECT_ID": "2006-002A",
  "OBJECT_NAME": "ALOS",
  "NORAD_CAT_ID": "28931",
  "OBJECT_TYPE": "PAYLOAD",
  "PERIOD": "98.479",
  "INCLINATION": "97.8777",
  "APOGEE": "687.303",
  "PERIGEE": "684.671",
  "ECCENTRICITY": "0.0001863",
  "MEAN_MOTION": "14.62229092",
  "TLE_LINE1": "1 28931U 06002A   16239.22015244  .00000198  00000-0  48110-4 0  9998",
  "TLE_LINE2": "2 28931  97.8777 274.8097 0001863 120.1938 239.9449 14.62229092564359",
  "LAUNCH_DATE": "2006-01-24",
  "LAUNCH_SITE": "TANEGASHIMA SPACE CENTER",
  "OWNER": "JAPAN",
  "ORBIT_TYPE": "Low Earth Orbit",
  "OPERATIONAL_STATUS": "Nonoperational"
}, {
  "OBJECT_ID": "2006-005A",
  "OBJECT_NAME": "ASTRO F (AKARI)",
  "NORAD_CAT_ID": "28939",
  "OBJECT_TYPE": "PAYLOAD",
  "PERIOD": "94.347",
  "INCLINATION": "98.2489",
  "APOGEE": "565.066",
  "PERIGEE": "408.867",
  "ECCENTRICITY": "0.0113763",
  "MEAN_MOTION": "15.26273159",
  "TLE_LINE1": "1 28939U 06005A   16239.14515821  .00005477  00000-0  17810-3 0  9993",
  "TLE_LINE2": "2 28939  98.2489  42.8956 0113763 127.5875 233.5757 15.26273159568072",
  "LAUNCH_DATE": "2006-02-21",
  "LAUNCH_SITE": "KAGOSHIMA SPACE CENTER UNIVERSITY OF TOKYO",
  "OWNER": "JAPAN",
  "ORBIT_TYPE": "Low Earth Orbit",
  "OPERATIONAL_STATUS": "Nonoperational"
}, {
  "OBJECT_ID": "2006-008B",
  "OBJECT_NAME": "ST5-B",
  "NORAD_CAT_ID": "28981",
  "OBJECT_TYPE": "PAYLOAD",
  "PERIOD": "119.028",
  "INCLINATION": "105.503",
  "APOGEE": "3008.907",
  "PERIGEE": "265.737",
  "ECCENTRICITY": "0.1711175",
  "MEAN_MOTION": "12.09790746",
  "TLE_LINE1": "1 28981U 06008B   16238.93637855 +.00008470 +33352-5 +20193-3 0  9996",
  "TLE_LINE2": "2 28981 105.5030 247.2816 1711175 271.6925 068.9809 12.09790746422563",
  "LAUNCH_DATE": "2006-03-22",
  "LAUNCH_SITE": "Pegasus launched from Western Range Air Space",
  "OWNER": "UNITED STATES OF AMERICA",
  "ORBIT_TYPE": "Low Earth Orbit",
  "OPERATIONAL_STATUS": "Nonoperational"
}]